{
  "type" : "FeatureCollection",
  "features" : [{"type":"Feature","id":1,"geometry":{"type":"LineString","coordinates":[[57.32900022982227,37.472292345900328],[57.329021986610968,37.472324087351247],[57.329164720966723,37.472531454910914],[57.329541189669683,37.47307838979178],[57.330140944720156,37.473940383635203],[57.330632110559009,37.474663233166673],[57.330933811290919,37.475101518133265],[57.331128425939085,37.475384234541529],[57.331595451315138,37.476062669580244],[57.331613676694403,37.476089197021672]]},"properties":{"OBJECTID":1,"Hierarchy":2,"Width":24,"jahat_hark":3,"Name":"شهید بهشتی جنوبی","Condition":1,"C_Width":14.3999996,"P_Width":9.60000038,"mahalle_id":111,"lighting":0,"kfsazi":0,"piade_ro":1,"keyfiat_ma":50,"trafic":5,"connectivi":0,"integratio":0,"Shape_Leng":480.45986302400001,"mabar_id":"99077","Shape_Le_1":480.45986302400001,"Shape_Length":480.45986302431322}},{"type":"Feature","id":2,"geometry":{"type":"LineString","coordinates":[[57.329541189669683,37.47307838979178],[57.3292148027896,37.473210561158609],[57.328512547376462,37.473494936438826],[57.328230492868457,37.473609151884936],[57.327510906140951,37.473900536013979],[57.327248603102952,37.47400830818269],[57.326644335656944,37.474256273246127]]},"properties":{"OBJECTID":2,"Hierarchy":5,"Width":10,"jahat_hark":1,"Name":"شهید محقر_شریعتی3","Condition":1,"C_Width":6,"P_Width":4,"mahalle_id":12,"lighting":0,"kfsazi":0,"piade_ro":2,"keyfiat_ma":39,"trafic":3,"connectivi":0,"integratio":0,"Shape_Leng":287.55514541299999,"mabar_id":"12028","Shape_Le_1":287.55514541299999,"Shape_Length":287.55514541308537}},{"type":"Feature","id":3,"geometry":{"type":"LineString","coordinates":[[57.326274912787817,37.473700666552212],[57.329164720966723,37.472531454910914]]},"properties":{"OBJECTID":3,"Hierarchy":5,"Width":12,"jahat_hark":1,"Name":"شهید یزدانی_شریعتی1","Condition":1,"C_Width":7.19999981,"P_Width":4.80000019,"mahalle_id":12,"lighting":0,"kfsazi":0,"piade_ro":2,"keyfiat_ma":33,"trafic":2,"connectivi":0,"integratio":0,"Shape_Leng":286.56427422399997,"mabar_id":"12029","Shape_Le_1":286.56427422399997,"Shape_Length":286.56427422380659}},{"type":"Feature","id":4,"geometry":{"type":"LineString","coordinates":[[57.328819316542031,37.477533415716792],[57.328428273761311,37.476945720949281],[57.328275288215202,37.47670909034764],[57.3276908588767,37.475830177665536],[57.327238203050541,37.475149423065773],[57.326644335656944,37.474256273246127],[57.326477124717279,37.474004792536782],[57.326274912787817,37.473700666552212],[57.325995373113606,37.473290030824003]]},"properties":{"OBJECTID":4,"Hierarchy":2,"Width":20,"jahat_hark":2,"Name":"شریعتی جنوبی_دوچنار","Condition":1,"C_Width":12,"P_Width":8,"mahalle_id":12,"lighting":0,"kfsazi":0,"piade_ro":0,"keyfiat_ma":35,"trafic":5,"connectivi":0,"integratio":0,"Shape_Leng":532.89832255600004,"mabar_id":"12001","Shape_Le_1":532.89832255600004,"Shape_Length":532.89832255616341}},{"type":"Feature","id":5,"geometry":{"type":"LineString","coordinates":[[57.328768097398452,37.473870256077085],[57.328512547376462,37.473494936438826]]},"properties":{"OBJECTID":5,"Hierarchy":5,"Width":6,"jahat_hark":1,"Name":" ","Condition":1,"C_Width":3.5999999,"P_Width":2.4000001,"mahalle_id":12,"lighting":0,"kfsazi":0,"piade_ro":2,"keyfiat_ma":14,"trafic":1,"connectivi":0,"integratio":0,"Shape_Leng":47.375238865599997,"mabar_id":"12038","Shape_Le_1":47.375238865599997,"Shape_Length":47.375238865550024}},{"type":"Feature","id":6,"geometry":{"type":"LineString","coordinates":[[57.330334819251988,37.476863304165327],[57.329994786400476,37.476315099583353],[57.32960620315265,37.475697570104956],[57.329284160259768,37.475185776145764]]},"properties":{"OBJECTID":6,"Hierarchy":4,"Width":12,"jahat_hark":2,"Name":"مروارید","Condition":1,"C_Width":7.19999981,"P_Width":4.80000019,"mahalle_id":12,"lighting":0,"kfsazi":0,"piade_ro":2,"keyfiat_ma":40,"trafic":3,"connectivi":0,"integratio":0,"Shape_Leng":208.00863373300001,"mabar_id":"12003","Shape_Le_1":208.00863373300001,"Shape_Length":208.00863373272617}},{"type":"Feature","id":7,"geometry":{"type":"LineString","coordinates":[[57.328230492868457,37.473609151884936],[57.328819660354661,37.474490744150515],[57.329284160259768,37.475185776145764]]},"properties":{"OBJECTID":7,"Hierarchy":5,"Width":12,"jahat_hark":1,"Name":" ","Condition":1,"C_Width":7.19999981,"P_Width":4.80000019,"mahalle_id":12,"lighting":0,"kfsazi":0,"piade_ro":2,"keyfiat_ma":36,"trafic":2,"connectivi":0,"integratio":0,"Shape_Leng":198.18066557099999,"mabar_id":"12026","Shape_Le_1":198.18066557099999,"Shape_Length":198.18066557095358}},{"type":"Feature","id":8,"geometry":{"type":"LineString","coordinates":[[57.329321643913495,37.476236589283765],[57.329270201459522,37.476234881243386],[57.329171770279125,37.476276567879189],[57.328778894696534,37.476462357110471],[57.328697985859293,37.476502865180827],[57.328275288215202,37.47670909034764]]},"properties":{"OBJECTID":8,"Hierarchy":5,"Width":12,"jahat_hark":5,"Name":"شریعتی9","Condition":1,"C_Width":7.19999981,"P_Width":4.80000019,"mahalle_id":12,"lighting":0,"kfsazi":0,"piade_ro":2,"keyfiat_ma":20,"trafic":4,"connectivi":0,"integratio":0,"Shape_Leng":107.070296063,"mabar_id":"12013","Shape_Le_1":107.070296063,"Shape_Length":107.07029606349599}},{"type":"Feature","id":9,"geometry":{"type":"LineString","coordinates":[[57.328275288215202,37.47670909034764],[57.327313744145236,37.477164435786236],[57.326819615219371,37.477397717012174],[57.326403197970947,37.477594307731486],[57.325854134244715,37.477853515731873]]},"properties":{"OBJECTID":9,"Hierarchy":5,"Width":12,"jahat_hark":4,"Name":"رضا امامی9_شریعتی14","Condition":1,"C_Width":7.19999981,"P_Width":4.80000019,"mahalle_id":12,"lighting":0,"kfsazi":0,"piade_ro":2,"keyfiat_ma":40,"trafic":3,"connectivi":0,"integratio":0,"Shape_Leng":248.89303625599999,"mabar_id":"12018","Shape_Le_1":248.89303625599999,"Shape_Length":248.89303625643944}},{"type":"Feature","id":10,"geometry":{"type":"LineString","coordinates":[[57.325285018280738,37.474091322453496],[57.325657943502179,37.474652544387773],[57.326249785894653,37.475543371075389],[57.326694330603736,37.476223883248942]]},"properties":{"OBJECTID":10,"Hierarchy":5,"Width":12,"jahat_hark":1,"Name":"طالقانی 63_شهید حسن ابا","Condition":1,"C_Width":7.19999981,"P_Width":4.80000019,"mahalle_id":12,"lighting":0,"kfsazi":0,"piade_ro":2,"keyfiat_ma":33,"trafic":2,"connectivi":0,"integratio":0,"Shape_Leng":267.40467892599997,"mabar_id":"12060","Shape_Le_1":267.40467892599997,"Shape_Length":267.40467892594654}},{"type":"Feature","id":11,"geometry":{"type":"LineString","coordinates":[[57.326368606326149,37.478616919396856],[57.325854134244715,37.477853515731873],[57.325662617616842,37.47756932738374],[57.325358552874697,37.47711812623988],[57.325166366127377,37.476832935669151],[57.325136789349934,37.47678904660404],[57.324892036368716,37.476425849928532],[57.324771091039985,37.476246374231089],[57.324729362296736,37.476184450567523],[57.324361618719649,37.475638731355176],[57.324215779667497,37.475422307872122],[57.324116975714482,37.475275685017941],[57.324086276698416,37.47523012762047],[57.323860293481097,37.474894766397242],[57.323563072886166,37.474453633330171]]},"properties":{"OBJECTID":11,"Hierarchy":2,"Width":20,"jahat_hark":3,"Name":"رضا امامی جنوبی","Condition":47,"C_Width":12,"P_Width":8,"mahalle_id":111,"lighting":0,"kfsazi":0,"piade_ro":0,"keyfiat_ma":47,"trafic":5,"connectivi":0,"integratio":0,"Shape_Leng":524.28593375200001,"mabar_id":"99083","Shape_Le_1":524.28593375200001,"Shape_Length":524.28593375174944}},{"type":"Feature","id":12,"geometry":{"type":"LineString","coordinates":[[57.325166366127377,37.476832935669151],[57.325747518670426,37.476601289981318],[57.326694330603736,37.476223883248942],[57.327039438032763,37.476088326599509],[57.3276908588767,37.475830177665536]]},"properties":{"OBJECTID":12,"Hierarchy":4,"Width":16,"jahat_hark":5,"Name":"رضا امامی7_شهید امانی_","Condition":1,"C_Width":9.60000038,"P_Width":6.4000001,"mahalle_id":12,"lighting":0,"kfsazi":0,"piade_ro":2,"keyfiat_ma":40,"trafic":3,"connectivi":0,"integratio":0,"Shape_Leng":249.40052836699999,"mabar_id":"12005","Shape_Le_1":249.40052836699999,"Shape_Length":249.40052836721557}},{"type":"Feature","id":13,"geometry":{"type":"LineString","coordinates":[[57.330632110559009,37.474663233166673],[57.329653771201244,37.475035886651241],[57.329284160259768,37.475185776145764],[57.328783011967886,37.475389006583065],[57.328414075572596,37.475538510198682],[57.3276908588767,37.475830177665536]]},"properties":{"OBJECTID":13,"Hierarchy":3,"Width":20,"jahat_hark":1,"Name":"شریعتی7_کوچه برنجی","Condition":1,"C_Width":12,"P_Width":8,"mahalle_id":12,"lighting":0,"kfsazi":0,"piade_ro":2,"keyfiat_ma":45,"trafic":4,"connectivi":0,"integratio":0,"Shape_Leng":290.527482308,"mabar_id":"12002","Shape_Le_1":290.527482308,"Shape_Length":290.52748230806753}},{"type":"Feature","id":14,"geometry":{"type":"LineString","coordinates":[[57.331526668783603,37.476332370229152],[57.331511140288391,37.476339529183917],[57.331047183948627,37.476548362370202],[57.330334819251988,37.476863304165327],[57.32990719576577,37.47705241755699],[57.329852096576523,37.477076779381335],[57.329757656220615,37.477118535581383],[57.328819316542031,37.477533415716792]]},"properties":{"OBJECTID":14,"Hierarchy":2,"Width":24,"jahat_hark":5,"Name":"طالقانی غربی","Condition":1,"C_Width":14.3999996,"P_Width":9.60000038,"mahalle_id":111,"lighting":0,"kfsazi":0,"piade_ro":0,"keyfiat_ma":50,"trafic":5,"connectivi":0,"integratio":0,"Shape_Leng":273.96744703299998,"mabar_id":"99055","Shape_Le_1":273.96744703299998,"Shape_Length":273.96744703264687}},{"type":"Feature","id":15,"geometry":{"type":"LineString","coordinates":[[57.325657943502179,37.474652544387773],[57.324699914886821,37.475031357308794],[57.324116975714482,37.475275685017941]]},"properties":{"OBJECTID":15,"Hierarchy":5,"Width":16,"jahat_hark":1,"Name":"رضا امامی3_شریعتی جنوب","Condition":1,"C_Width":9.60000038,"P_Width":6.4000001,"mahalle_id":12,"lighting":0,"kfsazi":0,"piade_ro":2,"keyfiat_ma":47,"trafic":2,"connectivi":0,"integratio":0,"Shape_Leng":152.79852248099999,"mabar_id":"12027","Shape_Le_1":152.79852248099999,"Shape_Length":152.79852248090009}},{"type":"Feature","id":16,"geometry":{"type":"LineString","coordinates":[[57.328616890942861,37.476235369604979],[57.328778894696534,37.476462357110471]]},"properties":{"OBJECTID":16,"Hierarchy":5,"Width":12,"jahat_hark":1,"Name":" ","Condition":1,"C_Width":7.19999981,"P_Width":4.80000019,"mahalle_id":12,"lighting":0,"kfsazi":0,"piade_ro":2,"keyfiat_ma":20,"trafic":1,"connectivi":0,"integratio":0,"Shape_Leng":28.971598045099999,"mabar_id":"12012","Shape_Le_1":28.971598045099999,"Shape_Length":28.971598045089017}},{"type":"Feature","id":17,"geometry":{"type":"LineString","coordinates":[[57.32990719576577,37.47705241755699],[57.329713269681783,37.47676393936699],[57.329688344934219,37.476722509109564],[57.329610411562811,37.476592968545162],[57.329458773183632,37.4763482973243],[57.329405806517151,37.476271189787845],[57.329355681358592,37.476237719368612],[57.329321643913495,37.476236589283765]]},"properties":{"OBJECTID":17,"Hierarchy":5,"Width":12,"jahat_hark":3,"Name":"شریعتی9","Condition":1,"C_Width":7.19999981,"P_Width":4.80000019,"mahalle_id":12,"lighting":0,"kfsazi":0,"piade_ro":2,"keyfiat_ma":20,"trafic":4,"connectivi":0,"integratio":0,"Shape_Leng":106.166334718,"mabar_id":"12011","Shape_Le_1":106.166334718,"Shape_Length":106.16633471753678}},{"type":"Feature","id":18,"geometry":{"type":"LineString","coordinates":[[57.324729362296736,37.476184450567523],[57.325312721277037,37.475943446554204],[57.325783957920919,37.475748760912573],[57.326249785894653,37.475543371075389],[57.326749424899909,37.475349880390382],[57.326921052085119,37.475278971969196],[57.327238203050541,37.475149423065773]]},"properties":{"OBJECTID":18,"Hierarchy":5,"Width":10,"jahat_hark":5,"Name":"رضا امامی5_شریعتی جنوب","Condition":1,"C_Width":6,"P_Width":4,"mahalle_id":12,"lighting":0,"kfsazi":0,"piade_ro":2,"keyfiat_ma":40,"trafic":2,"connectivi":0,"integratio":0,"Shape_Leng":249.82339303399999,"mabar_id":"12046","Shape_Le_1":249.82339303399999,"Shape_Length":249.82339303421321}},{"type":"Feature","id":19,"geometry":{"type":"LineString","coordinates":[[57.326873082032364,37.475514001717166],[57.326749424899909,37.475349880390382]]},"properties":{"OBJECTID":19,"Hierarchy":5,"Width":10,"jahat_hark":1,"Name":" ","Condition":1,"C_Width":6,"P_Width":4,"mahalle_id":12,"lighting":0,"kfsazi":0,"piade_ro":2,"keyfiat_ma":40,"trafic":1,"connectivi":0,"integratio":0,"Shape_Leng":21.238744930199999,"mabar_id":"12055","Shape_Le_1":21.238744930199999,"Shape_Length":21.238744930198621}},{"type":"Feature","id":20,"geometry":{"type":"LineString","coordinates":[[57.323738482342982,37.474713996695776],[57.324328678750568,37.474476378718848],[57.325285018280738,37.474091322453496],[57.326274912787817,37.473700666552212]]},"properties":{"OBJECTID":20,"Hierarchy":5,"Width":10,"jahat_hark":5,"Name":"رضا امامی1_شریعتی جنوب","Condition":1,"C_Width":6,"P_Width":4,"mahalle_id":12,"lighting":0,"kfsazi":0,"piade_ro":2,"keyfiat_ma":39,"trafic":2,"connectivi":0,"integratio":0,"Shape_Leng":250.876120732,"mabar_id":"12048","Shape_Le_1":250.876120732,"Shape_Length":250.87612073161722}},{"type":"Feature","id":21,"geometry":{"type":"LineString","coordinates":[[57.324098716566674,37.474078339665105],[57.324328678750568,37.474476378718848],[57.324699914886821,37.475031357308794],[57.325312721277037,37.475943446554204],[57.325747518670426,37.476601289981318],[57.325993797747365,37.476975206012703],[57.326403197970947,37.477594307731486]]},"properties":{"OBJECTID":21,"Hierarchy":4,"Width":8,"jahat_hark":1,"Name":"طالقانی38_شهید رنجبر","Condition":1,"C_Width":4.80000019,"P_Width":3.20000005,"mahalle_id":12,"lighting":0,"kfsazi":0,"piade_ro":2,"keyfiat_ma":40,"trafic":2,"connectivi":0,"integratio":0,"Shape_Leng":440.15590465700001,"mabar_id":"12059","Shape_Le_1":440.15590465700001,"Shape_Length":440.15590465665815}},{"type":"Feature","id":22,"geometry":{"type":"LineString","coordinates":[[57.32960620315265,37.475697570104956],[57.329957562095792,37.475549498162202],[57.33001882489976,37.475521752465831],[57.330103816003358,37.475479464503344],[57.330236057322843,37.47540644664393],[57.330353073540621,37.475349170304746],[57.330425515801387,37.475315541469179],[57.330527415744413,37.475264300414096],[57.330628120297114,37.475220032883236],[57.330933811290919,37.475101518133265]]},"properties":{"OBJECTID":22,"Hierarchy":5,"Width":8,"jahat_hark":1,"Name":" ","Condition":1,"C_Width":4.80000019,"P_Width":3.20000005,"mahalle_id":12,"lighting":0,"kfsazi":0,"piade_ro":2,"keyfiat_ma":28,"trafic":2,"connectivi":0,"integratio":0,"Shape_Leng":134.892169282,"mabar_id":"12006","Shape_Le_1":134.892169282,"Shape_Length":134.89216928226108}},{"type":"Feature","id":23,"geometry":{"type":"LineString","coordinates":[[57.330527415744413,37.475264300414096],[57.330772055314064,37.475681906659929],[57.330650981312168,37.475740291729473],[57.330597654114861,37.475719135348427],[57.330546886370556,37.475703376376408],[57.330481532581999,37.47572129717588]]},"properties":{"OBJECTID":23,"Hierarchy":5,"Width":8,"jahat_hark":1,"Name":" ","Condition":1,"C_Width":4.80000019,"P_Width":3.20000005,"mahalle_id":12,"lighting":0,"kfsazi":0,"piade_ro":2,"keyfiat_ma":16,"trafic":1,"connectivi":0,"integratio":0,"Shape_Leng":79.839334722399997,"mabar_id":"12007","Shape_Le_1":79.839334722399997,"Shape_Length":79.839334722408168}},{"type":"Feature","id":24,"geometry":{"type":"LineString","coordinates":[[57.331047183948627,37.476548362370202],[57.33075251934887,37.476116501985821],[57.330700703476374,37.476040560879994]]},"properties":{"OBJECTID":24,"Hierarchy":5,"Width":8,"jahat_hark":1,"Name":"صدف","Condition":1,"C_Width":4.80000019,"P_Width":3.20000005,"mahalle_id":12,"lighting":0,"kfsazi":0,"piade_ro":2,"keyfiat_ma":21,"trafic":1,"connectivi":0,"integratio":0,"Shape_Leng":64.1280813021,"mabar_id":"12009","Shape_Le_1":64.1280813021,"Shape_Length":64.128081302115959}},{"type":"Feature","id":25,"geometry":{"type":"LineString","coordinates":[[57.32960620315265,37.475697570104956],[57.329226394488778,37.475858865803993],[57.328970082405377,37.475627333606326],[57.328882251343771,37.47552422562147],[57.328783011967886,37.475389006583065]]},"properties":{"OBJECTID":25,"Hierarchy":5,"Width":8,"jahat_hark":1,"Name":"شهید محمدی","Condition":1,"C_Width":4.80000019,"P_Width":3.20000005,"mahalle_id":12,"lighting":0,"kfsazi":0,"piade_ro":2,"keyfiat_ma":10,"trafic":1,"connectivi":0,"integratio":0,"Shape_Leng":103.51373767699999,"mabar_id":"12015","Shape_Le_1":103.51373767699999,"Shape_Length":103.51373767665915}},{"type":"Feature","id":26,"geometry":{"type":"LineString","coordinates":[[57.325400094466929,37.475228793619927],[57.325507745428041,37.475307960689655],[57.325783957920919,37.475748760912573]]},"properties":{"OBJECTID":26,"Hierarchy":5,"Width":8,"jahat_hark":1,"Name":" ","Condition":1,"C_Width":4.80000019,"P_Width":3.20000005,"mahalle_id":12,"lighting":0,"kfsazi":0,"piade_ro":2,"keyfiat_ma":40,"trafic":1,"connectivi":0,"integratio":0,"Shape_Leng":67.614680459400006,"mabar_id":"12056","Shape_Le_1":67.614680459400006,"Shape_Length":67.614680459368472}},{"type":"Feature","id":27,"geometry":{"type":"LineString","coordinates":[[57.325737526967885,37.474314026755543],[57.325998488027729,37.474207958015391],[57.326136535009979,37.474154161170652],[57.326477124717279,37.474004792536782]]},"properties":{"OBJECTID":27,"Hierarchy":5,"Width":8,"jahat_hark":1,"Name":"شهید ثروتی","Condition":1,"C_Width":4.80000019,"P_Width":3.20000005,"mahalle_id":12,"lighting":0,"kfsazi":0,"piade_ro":2,"keyfiat_ma":40,"trafic":1,"connectivi":0,"integratio":0,"Shape_Leng":73.863010285800001,"mabar_id":"12049","Shape_Le_1":73.863010285800001,"Shape_Length":73.863010285763949}},{"type":"Feature","id":28,"geometry":{"type":"LineString","coordinates":[[57.325993797747365,37.476975206012703],[57.325679993257744,37.477103081113015]]},"properties":{"OBJECTID":28,"Hierarchy":5,"Width":6,"jahat_hark":1,"Name":" ","Condition":1,"C_Width":3.5999999,"P_Width":2.4000001,"mahalle_id":12,"lighting":0,"kfsazi":0,"piade_ro":2,"keyfiat_ma":26,"trafic":1,"connectivi":0,"integratio":0,"Shape_Leng":31.1625915268,"mabar_id":"12023","Shape_Le_1":31.1625915268,"Shape_Length":31.1625915267857}},{"type":"Feature","id":29,"geometry":{"type":"LineString","coordinates":[[57.325783957920919,37.475748760912573],[57.326015132178291,37.476080205653517]]},"properties":{"OBJECTID":29,"Hierarchy":5,"Width":6,"jahat_hark":1,"Name":" ","Condition":1,"C_Width":3.5999999,"P_Width":2.4000001,"mahalle_id":12,"lighting":0,"kfsazi":0,"piade_ro":2,"keyfiat_ma":40,"trafic":1,"connectivi":0,"integratio":0,"Shape_Leng":42.0708240803,"mabar_id":"12057","Shape_Le_1":42.0708240803,"Shape_Length":42.070824080270327}},{"type":"Feature","id":30,"geometry":{"type":"LineString","coordinates":[[57.327039438032763,37.476088326599509],[57.32723139397654,37.476379832465774]]},"properties":{"OBJECTID":30,"Hierarchy":5,"Width":6,"jahat_hark":1,"Name":" ","Condition":1,"C_Width":3.5999999,"P_Width":2.4000001,"mahalle_id":12,"lighting":0,"kfsazi":0,"piade_ro":2,"keyfiat_ma":25,"trafic":1,"connectivi":0,"integratio":0,"Shape_Leng":36.523746964700003,"mabar_id":"12024","Shape_Le_1":36.523746964700003,"Shape_Length":36.523746964749733}},{"type":"Feature","id":31,"geometry":{"type":"LineString","coordinates":[[57.327136735061572,37.476416471026404],[57.32723139397654,37.476379832465774],[57.327351498892028,37.476333343508813]]},"properties":{"OBJECTID":31,"Hierarchy":5,"Width":6,"jahat_hark":1,"Name":" ","Condition":1,"C_Width":3.5999999,"P_Width":2.4000001,"mahalle_id":12,"lighting":0,"kfsazi":0,"piade_ro":2,"keyfiat_ma":20,"trafic":1,"connectivi":0,"integratio":0,"Shape_Leng":21.110232263299999,"mabar_id":"12025","Shape_Le_1":21.110232263299999,"Shape_Length":21.110232263306912}},{"type":"Feature","id":32,"geometry":{"type":"LineString","coordinates":[[57.328414075572596,37.475538510198682],[57.328586652085939,37.475791385602435]]},"properties":{"OBJECTID":32,"Hierarchy":5,"Width":6,"jahat_hark":1,"Name":" ","Condition":1,"C_Width":3.5999999,"P_Width":2.4000001,"mahalle_id":12,"lighting":0,"kfsazi":0,"piade_ro":2,"keyfiat_ma":15,"trafic":1,"connectivi":0,"integratio":0,"Shape_Leng":31.936124184200001,"mabar_id":"12016","Shape_Le_1":31.936124184200001,"Shape_Length":31.936124184244871}},{"type":"Feature","id":33,"geometry":{"type":"LineString","coordinates":[[57.328773476476009,37.475707020802133],[57.328586652085939,37.475791385602435],[57.328516574910452,37.475823030038036]]},"properties":{"OBJECTID":33,"Hierarchy":5,"Width":6,"jahat_hark":1,"Name":" ","Condition":1,"C_Width":3.5999999,"P_Width":2.4000001,"mahalle_id":12,"lighting":0,"kfsazi":0,"piade_ro":2,"keyfiat_ma":10,"trafic":1,"connectivi":0,"integratio":0,"Shape_Leng":26.1079544822,"mabar_id":"12017","Shape_Le_1":26.1079544822,"Shape_Length":26.107954482222247}},{"type":"Feature","id":34,"geometry":{"type":"LineString","coordinates":[[57.326778085625499,37.475053154164463],[57.326921052085119,37.475278971969196]]},"properties":{"OBJECTID":34,"Hierarchy":5,"Width":6,"jahat_hark":1,"Name":" ","Condition":1,"C_Width":3.5999999,"P_Width":2.4000001,"mahalle_id":12,"lighting":0,"kfsazi":0,"piade_ro":2,"keyfiat_ma":40,"trafic":1,"connectivi":0,"integratio":0,"Shape_Leng":28.061535554700001,"mabar_id":"12053","Shape_Le_1":28.061535554700001,"Shape_Length":28.061535554736118}},{"type":"Feature","id":35,"geometry":{"type":"LineString","coordinates":[[57.331050230911337,37.476005331081133],[57.33075251934887,37.476116501985821]]},"properties":{"OBJECTID":35,"Hierarchy":5,"Width":6,"jahat_hark":1,"Name":" ","Condition":1,"C_Width":3.5999999,"P_Width":2.4000001,"mahalle_id":12,"lighting":0,"kfsazi":0,"piade_ro":2,"keyfiat_ma":20,"trafic":1,"connectivi":0,"integratio":0,"Shape_Leng":29.069608265300001,"mabar_id":"12008","Shape_Le_1":29.069608265300001,"Shape_Length":29.069608265272638}},{"type":"Feature","id":36,"geometry":{"type":"LineString","coordinates":[[57.329994786400476,37.476315099583353],[57.330176674006601,37.476198144839103],[57.330171608918029,37.476137608804002],[57.330270898229642,37.476054904963007]]},"properties":{"OBJECTID":36,"Hierarchy":5,"Width":6,"jahat_hark":1,"Name":" ","Condition":1,"C_Width":3.5999999,"P_Width":2.4000001,"mahalle_id":12,"lighting":0,"kfsazi":0,"piade_ro":2,"keyfiat_ma":28,"trafic":1,"connectivi":0,"integratio":0,"Shape_Leng":40.093837884099997,"mabar_id":"12010","Shape_Le_1":40.093837884099997,"Shape_Length":40.093837884121015}},{"type":"Feature","id":37,"geometry":{"type":"LineString","coordinates":[[57.328940334426143,37.476723258960533],[57.328428273761311,37.476945720949281]]},"properties":{"OBJECTID":37,"Hierarchy":5,"Width":6,"jahat_hark":1,"Name":"شریعتی11","Condition":1,"C_Width":3.5999999,"P_Width":2.4000001,"mahalle_id":12,"lighting":0,"kfsazi":0,"piade_ro":2,"keyfiat_ma":10,"trafic":3,"connectivi":0,"integratio":0,"Shape_Leng":51.565585581100002,"mabar_id":"12014","Shape_Le_1":51.565585581100002,"Shape_Length":51.56558558110229}},{"type":"Feature","id":38,"geometry":{"type":"LineString","coordinates":[[57.326749424899909,37.475349880390382],[57.326584268243899,37.475103307553397]]},"properties":{"OBJECTID":38,"Hierarchy":5,"Width":6,"jahat_hark":1,"Name":" ","Condition":1,"C_Width":3.5999999,"P_Width":2.4000001,"mahalle_id":12,"lighting":0,"kfsazi":0,"piade_ro":2,"keyfiat_ma":40,"trafic":1,"connectivi":0,"integratio":0,"Shape_Leng":31.0093886495,"mabar_id":"12054","Shape_Le_1":31.0093886495,"Shape_Length":31.009388649473344}},{"type":"Feature","id":39,"geometry":{"type":"LineString","coordinates":[[57.32628775610663,37.474795707893954],[57.325990673077257,37.474520932314704]]},"properties":{"OBJECTID":39,"Hierarchy":5,"Width":6,"jahat_hark":1,"Name":" ","Condition":1,"C_Width":3.5999999,"P_Width":2.4000001,"mahalle_id":12,"lighting":0,"kfsazi":0,"piade_ro":2,"keyfiat_ma":39,"trafic":1,"connectivi":0,"integratio":0,"Shape_Leng":40.240907158100001,"mabar_id":"12050","Shape_Le_1":40.240907158100001,"Shape_Length":40.240907158108747}},{"type":"Feature","id":40,"geometry":{"type":"LineString","coordinates":[[57.328819316542031,37.477533415716792],[57.327842720516038,37.477965196011873],[57.3269186394568,37.478373747061177],[57.326368606326149,37.478616919396856]]},"properties":{"OBJECTID":40,"Hierarchy":2,"Width":24,"jahat_hark":5,"Name":"طالقانی غربی","Condition":1,"C_Width":14.3999996,"P_Width":9.60000038,"mahalle_id":111,"lighting":0,"kfsazi":0,"piade_ro":0,"keyfiat_ma":50,"trafic":5,"connectivi":0,"integratio":0,"Shape_Leng":247.79390628100001,"mabar_id":"99056","Shape_Le_1":247.79390628100001,"Shape_Length":247.79390628139933}},{"type":"Feature","id":41,"geometry":{"type":"LineString","coordinates":[[57.326568871629014,37.477034057304806],[57.326819615219371,37.477397717012174]]},"properties":{"OBJECTID":41,"Hierarchy":5,"Width":6,"jahat_hark":1,"Name":" ","Condition":1,"C_Width":3.5999999,"P_Width":2.4000001,"mahalle_id":12,"lighting":0,"kfsazi":0,"piade_ro":2,"keyfiat_ma":15,"trafic":1,"connectivi":0,"integratio":0,"Shape_Leng":46.0357213833,"mabar_id":"12021","Shape_Le_1":46.0357213833,"Shape_Length":46.035721383326717}},{"type":"Feature","id":42,"geometry":{"type":"LineString","coordinates":[[57.327979870540211,37.474840784874715],[57.327963666675807,37.474816333410054],[57.32779761322471,37.474565752758338]]},"properties":{"OBJECTID":42,"Hierarchy":5,"Width":6,"jahat_hark":1,"Name":" ","Condition":1,"C_Width":3.5999999,"P_Width":2.4000001,"mahalle_id":12,"lighting":0,"kfsazi":0,"piade_ro":2,"keyfiat_ma":39,"trafic":1,"connectivi":0,"integratio":0,"Shape_Leng":34.5071837192,"mabar_id":"12034","Shape_Le_1":34.5071837192,"Shape_Length":34.507183719158292}},{"type":"Feature","id":43,"geometry":{"type":"LineString","coordinates":[[57.327938616836391,37.474857980275409],[57.328156730531703,37.475160698108105]]},"properties":{"OBJECTID":43,"Hierarchy":5,"Width":6,"jahat_hark":1,"Name":" ","Condition":1,"C_Width":3.5999999,"P_Width":2.4000001,"mahalle_id":12,"lighting":0,"kfsazi":0,"piade_ro":2,"keyfiat_ma":40,"trafic":1,"connectivi":0,"integratio":0,"Shape_Leng":38.728008962099999,"mabar_id":"12032","Shape_Le_1":38.728008962099999,"Shape_Length":38.728008962121258}},{"type":"Feature","id":44,"geometry":{"type":"LineString","coordinates":[[57.3292148027896,37.473210561158609],[57.32921996807498,37.473217845134684],[57.329444235065978,37.473534100987514]]},"properties":{"OBJECTID":44,"Hierarchy":5,"Width":6,"jahat_hark":1,"Name":" ","Condition":1,"C_Width":3.5999999,"P_Width":2.4000001,"mahalle_id":12,"lighting":0,"kfsazi":0,"piade_ro":2,"keyfiat_ma":38,"trafic":1,"connectivi":0,"integratio":0,"Shape_Leng":41.230823684800001,"mabar_id":"12036","Shape_Le_1":41.230823684800001,"Shape_Length":41.230823684771899}},{"type":"Feature","id":45,"geometry":{"type":"LineString","coordinates":[[57.329573597167432,37.474176480539938],[57.329755753114952,37.474451890583595]]},"properties":{"OBJECTID":45,"Hierarchy":5,"Width":6,"jahat_hark":1,"Name":" ","Condition":1,"C_Width":3.5999999,"P_Width":2.4000001,"mahalle_id":12,"lighting":0,"kfsazi":0,"piade_ro":2,"keyfiat_ma":25,"trafic":1,"connectivi":0,"integratio":0,"Shape_Leng":34.540125125000003,"mabar_id":"12031","Shape_Le_1":34.540125125000003,"Shape_Length":34.540125124990389}},{"type":"Feature","id":46,"geometry":{"type":"LineString","coordinates":[[57.326018774582643,37.473324407489301],[57.324989094127744,37.47372042025755],[57.323667778806652,37.47425157740097]]},"properties":{"OBJECTID":46,"Hierarchy":2,"Width":30,"jahat_hark":4,"Name":" ","Condition":1,"C_Width":18,"P_Width":12,"mahalle_id":111,"lighting":0,"kfsazi":0,"piade_ro":0,"keyfiat_ma":50,"trafic":5,"connectivi":0,"integratio":0,"Shape_Leng":231.945655321,"mabar_id":"99046","Shape_Le_1":231.945655321,"Shape_Length":231.94565532072852}},{"type":"Feature","id":47,"geometry":{"type":"LineString","coordinates":[[57.328719229443934,37.472248119100286],[57.328511830393104,37.472329311452469],[57.327356110590785,37.47278704404853],[57.326659804049875,37.473062814454657],[57.326018774582643,37.473324407489301]]},"properties":{"OBJECTID":47,"Hierarchy":2,"Width":30,"jahat_hark":4,"Name":" ","Condition":1,"C_Width":18,"P_Width":12,"mahalle_id":111,"lighting":0,"kfsazi":0,"piade_ro":0,"keyfiat_ma":50,"trafic":5,"connectivi":0,"integratio":0,"Shape_Leng":266.97794091600002,"mabar_id":"99044","Shape_Le_1":266.97794091600002,"Shape_Length":266.97794091626622}},{"type":"Feature","id":48,"geometry":{"type":"LineString","coordinates":[[57.325953863500622,37.475097958125652],[57.326119877350976,37.475035257969949]]},"properties":{"OBJECTID":48,"Hierarchy":5,"Width":6,"jahat_hark":1,"Name":" ","Condition":1,"C_Width":3.5999999,"P_Width":2.4000001,"mahalle_id":12,"lighting":0,"kfsazi":0,"piade_ro":2,"keyfiat_ma":40,"trafic":1,"connectivi":0,"integratio":0,"Shape_Leng":16.243810423199999,"mabar_id":"12052","Shape_Le_1":16.243810423199999,"Shape_Length":16.243810423242817}},{"type":"Feature","id":49,"geometry":{"type":"LineString","coordinates":[[57.325634435948842,37.474991036317363],[57.32582567428684,37.474905009991687]]},"properties":{"OBJECTID":49,"Hierarchy":5,"Width":6,"jahat_hark":1,"Name":" ","Condition":1,"C_Width":3.5999999,"P_Width":2.4000001,"mahalle_id":12,"lighting":0,"kfsazi":0,"piade_ro":2,"keyfiat_ma":10,"trafic":1,"connectivi":0,"integratio":0,"Shape_Leng":19.416906024300001,"mabar_id":"12051","Shape_Le_1":19.416906024300001,"Shape_Length":19.416906024277932}},{"type":"Feature","id":50,"geometry":{"type":"LineString","coordinates":[[57.326729462791178,37.476722502235646],[57.326956601663554,37.476622134132725]]},"properties":{"OBJECTID":50,"Hierarchy":5,"Width":6,"jahat_hark":1,"Name":" ","Condition":1,"C_Width":3.5999999,"P_Width":2.4000001,"mahalle_id":12,"lighting":0,"kfsazi":0,"piade_ro":2,"keyfiat_ma":10,"trafic":1,"connectivi":0,"integratio":0,"Shape_Leng":22.963665048199999,"mabar_id":"12022","Shape_Le_1":22.963665048199999,"Shape_Length":22.963665048201804}},{"type":"Feature","id":51,"geometry":{"type":"LineString","coordinates":[[57.327080389338605,37.473792792929189],[57.327220054661176,37.474020022989173]]},"properties":{"OBJECTID":51,"Hierarchy":5,"Width":6,"jahat_hark":1,"Name":" ","Condition":1,"C_Width":3.5999999,"P_Width":2.4000001,"mahalle_id":12,"lighting":0,"kfsazi":0,"piade_ro":2,"keyfiat_ma":25,"trafic":1,"connectivi":0,"integratio":0,"Shape_Leng":28.0719690259,"mabar_id":"12044","Shape_Le_1":28.0719690259,"Shape_Length":28.071969025936333}},{"type":"Feature","id":52,"geometry":{"type":"LineString","coordinates":[[57.327789375898838,37.473466339793717],[57.327964556647878,37.473716839290404]]},"properties":{"OBJECTID":52,"Hierarchy":5,"Width":6,"jahat_hark":1,"Name":" ","Condition":1,"C_Width":3.5999999,"P_Width":2.4000001,"mahalle_id":12,"lighting":0,"kfsazi":0,"piade_ro":2,"keyfiat_ma":36,"trafic":1,"connectivi":0,"integratio":0,"Shape_Leng":31.816481169999999,"mabar_id":"12043","Shape_Le_1":31.816481169999999,"Shape_Length":31.816481170018786}},{"type":"Feature","id":53,"geometry":{"type":"LineString","coordinates":[[57.328283306722234,37.473363979404127],[57.328401841995046,37.473539765384892]]},"properties":{"OBJECTID":53,"Hierarchy":5,"Width":6,"jahat_hark":1,"Name":" ","Condition":1,"C_Width":3.5999999,"P_Width":2.4000001,"mahalle_id":12,"lighting":0,"kfsazi":0,"piade_ro":2,"keyfiat_ma":10,"trafic":1,"connectivi":0,"integratio":0,"Shape_Leng":22.140312765200001,"mabar_id":"12042","Shape_Le_1":22.140312765200001,"Shape_Length":22.140312765220131}},{"type":"Feature","id":54,"geometry":{"type":"LineString","coordinates":[[57.328840817554152,37.473362005525338],[57.329017535221006,37.473585437445813]]},"properties":{"OBJECTID":54,"Hierarchy":5,"Width":6,"jahat_hark":1,"Name":" ","Condition":1,"C_Width":3.5999999,"P_Width":2.4000001,"mahalle_id":12,"lighting":0,"kfsazi":0,"piade_ro":2,"keyfiat_ma":40,"trafic":1,"connectivi":0,"integratio":0,"Shape_Leng":29.302275887099999,"mabar_id":"12037","Shape_Le_1":29.302275887099999,"Shape_Length":29.302275887071936}},{"type":"Feature","id":55,"geometry":{"type":"LineString","coordinates":[[57.327286904028966,37.474372988834581],[57.32706723432846,37.474082734145945]]},"properties":{"OBJECTID":55,"Hierarchy":5,"Width":6,"jahat_hark":1,"Name":" ","Condition":1,"C_Width":3.5999999,"P_Width":2.4000001,"mahalle_id":12,"lighting":0,"kfsazi":0,"piade_ro":2,"keyfiat_ma":20,"trafic":1,"connectivi":0,"integratio":0,"Shape_Leng":37.606234152399999,"mabar_id":"12041","Shape_Le_1":37.606234152399999,"Shape_Length":37.606234152378086}},{"type":"Feature","id":56,"geometry":{"type":"LineString","coordinates":[[57.327600819761351,37.474107230659456],[57.327453546502397,37.473924103482815]]},"properties":{"OBJECTID":56,"Hierarchy":5,"Width":6,"jahat_hark":1,"Name":" ","Condition":1,"C_Width":3.5999999,"P_Width":2.4000001,"mahalle_id":12,"lighting":0,"kfsazi":0,"piade_ro":2,"keyfiat_ma":40,"trafic":1,"connectivi":0,"integratio":0,"Shape_Leng":24.1318406599,"mabar_id":"12040","Shape_Le_1":24.1318406599,"Shape_Length":24.131840659869248}},{"type":"Feature","id":57,"geometry":{"type":"LineString","coordinates":[[57.327996073550416,37.473897401940221],[57.327942981372296,37.473916621324797],[57.327837712245682,37.473768202342818]]},"properties":{"OBJECTID":57,"Hierarchy":5,"Width":6,"jahat_hark":1,"Name":" ","Condition":1,"C_Width":3.5999999,"P_Width":2.4000001,"mahalle_id":12,"lighting":0,"kfsazi":0,"piade_ro":2,"keyfiat_ma":40,"trafic":1,"connectivi":0,"integratio":0,"Shape_Leng":24.070933491200002,"mabar_id":"12039","Shape_Le_1":24.070933491200002,"Shape_Length":24.070933491201725}},{"type":"Feature","id":58,"geometry":{"type":"LineString","coordinates":[[57.329003101624039,37.474083799158564],[57.329190144628207,37.474336316183319]]},"properties":{"OBJECTID":58,"Hierarchy":5,"Width":6,"jahat_hark":1,"Name":" ","Condition":1,"C_Width":3.5999999,"P_Width":2.4000001,"mahalle_id":12,"lighting":0,"kfsazi":0,"piade_ro":2,"keyfiat_ma":25,"trafic":1,"connectivi":0,"integratio":0,"Shape_Leng":32.532596171100003,"mabar_id":"12035","Shape_Le_1":32.532596171100003,"Shape_Length":32.532596171055246}},{"type":"Feature","id":59,"geometry":{"type":"LineString","coordinates":[[57.328431243366097,37.474376170957989],[57.328570421973403,37.474594633148456]]},"properties":{"OBJECTID":59,"Hierarchy":5,"Width":6,"jahat_hark":1,"Name":" ","Condition":1,"C_Width":3.5999999,"P_Width":2.4000001,"mahalle_id":12,"lighting":0,"kfsazi":0,"piade_ro":2,"keyfiat_ma":41,"trafic":1,"connectivi":0,"integratio":0,"Shape_Leng":27.182232854599999,"mabar_id":"12033","Shape_Le_1":27.182232854599999,"Shape_Length":27.18223285463349}},{"type":"Feature","id":60,"geometry":{"type":"LineString","coordinates":[[57.329508956950647,37.474804408617359],[57.329631292546111,37.475045002688688]]},"properties":{"OBJECTID":60,"Hierarchy":5,"Width":6,"jahat_hark":1,"Name":" ","Condition":1,"C_Width":3.5999999,"P_Width":2.4000001,"mahalle_id":12,"lighting":0,"kfsazi":0,"piade_ro":2,"keyfiat_ma":36,"trafic":1,"connectivi":0,"integratio":0,"Shape_Leng":28.8008047141,"mabar_id":"12030","Shape_Le_1":28.8008047141,"Shape_Length":28.800804714122709}},{"type":"Feature","id":61,"geometry":{"type":"LineString","coordinates":[[57.327238203050541,37.475149423065773],[57.327959244256142,37.474849382575279],[57.328819660354661,37.474490744150515],[57.328853294726599,37.474476724431163],[57.329573597167432,37.474176480539938],[57.330135750129045,37.473942153109903],[57.33014073188297,37.473940076863826],[57.330140944720156,37.473940383635203]]},"properties":{"OBJECTID":61,"Hierarchy":5,"Width":10,"jahat_hark":1,"Name":"شهید بهشتی 6","Condition":1,"C_Width":6,"P_Width":4,"mahalle_id":12,"lighting":0,"kfsazi":0,"piade_ro":2,"keyfiat_ma":39,"trafic":2,"connectivi":0,"integratio":0,"Shape_Leng":289.63806613999998,"mabar_id":"12058","Shape_Le_1":289.63806613999998,"Shape_Length":289.63806613970434}},{"type":"Feature","id":62,"geometry":{"type":"LineString","coordinates":[[57.326403197970947,37.477594307731486],[57.3269186394568,37.478373747061177]]},"properties":{"OBJECTID":62,"Hierarchy":4,"Width":8,"jahat_hark":3,"Name":"طالقانی38_شهید رنجبر","Condition":1,"C_Width":4.80000019,"P_Width":3.20000005,"mahalle_id":12,"lighting":0,"kfsazi":0,"piade_ro":2,"keyfiat_ma":41,"trafic":3,"connectivi":0,"integratio":0,"Shape_Leng":97.747913612000005,"mabar_id":"12004","Shape_Le_1":97.747913612000005,"Shape_Length":97.747913611955298}},{"type":"Feature","id":63,"geometry":{"type":"LineString","coordinates":[[57.326694330603736,37.476223883248942],[57.327313744145236,37.477164435786236],[57.327707689983058,37.477762613579813],[57.327842720516038,37.477965196011873]]},"properties":{"OBJECTID":63,"Hierarchy":5,"Width":12,"jahat_hark":2,"Name":"طالقانی 63_شهید حسن ابا","Condition":1,"C_Width":7.19999981,"P_Width":4.80000019,"mahalle_id":12,"lighting":0,"kfsazi":0,"piade_ro":2,"keyfiat_ma":36,"trafic":3,"connectivi":0,"integratio":0,"Shape_Leng":218.246187413,"mabar_id":"12019","Shape_Le_1":218.246187413,"Shape_Length":218.24618741267648}},{"type":"Feature","id":64,"geometry":{"type":"LineString","coordinates":[[57.326644335656944,37.474256273246127],[57.326169356141634,37.474450253386927],[57.325990673077257,37.474520932314704],[57.325657943502179,37.474652544387773]]},"properties":{"OBJECTID":64,"Hierarchy":5,"Width":16,"jahat_hark":4,"Name":"رضا امامی3_شریعتی جنوب","Condition":1,"C_Width":9.60000038,"P_Width":6.4000001,"mahalle_id":12,"lighting":0,"kfsazi":0,"piade_ro":2,"keyfiat_ma":40,"trafic":2,"connectivi":0,"integratio":0,"Shape_Leng":97.673685878000001,"mabar_id":"12047","Shape_Le_1":97.673685878000001,"Shape_Length":97.673685877978016}},{"type":"Feature","id":65,"geometry":{"type":"LineString","coordinates":[[57.323641075208478,37.474203703237748],[57.323644029859153,37.474207513334832],[57.323661018808458,37.474235253235875],[57.323671730216404,37.474264917622627],[57.323675844675627,37.474295610511717],[57.323673234921074,37.474326408351473],[57.323663981761698,37.474356382512269],[57.323648361769486,37.474384629065483],[57.323626848535902,37.474410297623955],[57.323600089016175,37.474432613039987],[57.323568890078931,37.474450903384998],[57.32353419144129,37.474464618051421],[57.323497040849929,37.474473342243073],[57.323458555698032,37.474476813305131],[57.323419897043749,37.474474928006636],[57.323382231152813,37.474467741744341],[57.323346691056933,37.474455471352123],[57.32331435050591,37.474438487059643],[57.323286183202313,37.474417300885904],[57.323263037854147,37.47439255138373],[57.323245612077635,37.474364983880683],[57.323234431951278,37.474335429803126],[57.323229833805009,37.47430477968453],[57.323231956195848,37.474273957949066],[57.323240736392115,37.474243894077155],[57.323255906853689,37.474215492870272],[57.32327701322729,37.474189610966178],[57.323303418746832,37.474167027983647],[57.32333432563258,37.474148425732842],[57.32336880439474,37.474134364700063],[57.323405815251171,37.474125267765125],[57.323444242012094,37.474121410193838],[57.323482927087845,37.47412290782475],[57.323520703146222,37.474129715179949],[57.323556433836728,37.474141628057573],[57.323589039812859,37.47415828616446],[57.323617540638097,37.474179187422941],[57.323641075208478,37.474203703237748]]},"properties":{"OBJECTID":65,"Hierarchy":2,"Width":24,"jahat_hark":1,"Name":"میدان فردوسی","Condition":0,"C_Width":14.3999996,"P_Width":0,"mahalle_id":111,"lighting":0,"kfsazi":0,"piade_ro":0,"keyfiat_ma":50,"trafic":5,"connectivi":0,"integratio":0,"Shape_Leng":123.782637677,"mabar_id":"99098","Shape_Le_1":123.782637677,"Shape_Length":123.78263767678393}},{"type":"Feature","id":66,"geometry":{"type":"LineString","coordinates":[[57.329081125040567,37.472041114254097],[57.329084079880417,37.472044924215652],[57.329101070338986,37.472072663337485],[57.329111783578298,37.472102327233202],[57.32911590013552,37.472133019934127],[57.329113292682621,37.472163817894369],[57.329104041959077,37.472193792480589],[57.329088424463471,37.47222203975145],[57.329066913712033,37.472247709298024],[57.329040156585108,37.472270025942912],[57.329008959879218,37.472288317720476],[57.328974263244341,37.47230203398],[57.328937114366568,37.472310759877189],[57.328898630587574,37.472314232705934],[57.328859972924171,37.472312349181955],[57.328822307612107,37.472305164648503],[57.32878676766569,37.472292895887421],[57.328754426830216,37.472275913079116],[57.328726258816829,37.472254728197861],[57.328703112354972,37.472229979757579],[57.328685685094364,37.472202413053822],[57.32867450315829,37.472172859488758],[57.328669902931168,37.472142209580561],[57.328672023032823,37.472111387746928],[57.328680800800569,37.472081323471294],[57.328695968767477,37.472052921567375],[57.328717072655394,37.472027038693838],[57.328743475773166,37.472004454498681],[57.328774380413542,37.47198585082873],[57.328808857154399,37.471971788212961],[57.328845866274378,37.471962689578895],[57.3288842916362,37.471958830243587],[57.328922975692301,37.471960326098767],[57.32896075114121,37.471967131720085],[57.328996481650854,37.471979042957841],[57.329029087880095,37.471995699568375],[57.329057589384782,37.472016599519065],[57.329081125040567,37.472041114254097]]},"properties":{"OBJECTID":66,"Hierarchy":2,"Width":30,"jahat_hark":1,"Name":"میدان کارگر","Condition":0,"C_Width":18,"P_Width":12,"mahalle_id":111,"lighting":0,"kfsazi":0,"piade_ro":0,"keyfiat_ma":46,"trafic":5,"connectivi":0,"integratio":0,"Shape_Leng":123.782637677,"mabar_id":"99097","Shape_Le_1":123.782637677,"Shape_Length":123.78263767683652}},{"type":"Feature","id":67,"geometry":{"type":"LineString","coordinates":[[57.331909275559084,37.476149677081224],[57.331912230705299,37.476153486967945],[57.33192922314759,37.476181225654322],[57.331939938101442,37.476210889264813],[57.331944056052492,37.476241581839226],[57.331941449630548,37.476272379835564],[57.33193219954412,37.476302354619371],[57.331916582272456,37.476330602243365],[57.331895071325206,37.476356272287951],[57.331868313588494,37.47637858956076],[57.331837115877271,37.476396882077168],[57.331802417871778,37.476410599164247],[57.331765267299481,37.476419325952676],[57.331726781553023,37.476422799709603],[57.331688121708595,37.476420917122674],[57.331650454067734,37.476413733506931],[57.331614911714816,37.476401465616547],[57.331582568467809,37.476384483605685],[57.331554398110498,37.476363299424598],[57.331531249442946,37.476338551566066],[57.331513820181364,37.476310985308153],[57.331502636509363,37.476281432039578],[57.331498034863678,37.476250782269524],[57.331500153906909,37.476219960411612],[57.331508931008358,37.476189895949936],[57.331524098720934,37.47616149370387],[57.33154520277435,37.476135610342375],[57.33157160647243,37.476113025528136],[57.331602512090356,37.47609442112666],[57.331636990176619,37.476080357688978],[57.331674000969294,37.476071258167373],[57.331712428280653,37.476067397905666],[57.331751114504407,37.476068892823506],[57.331788892273657,37.476075697524799],[57.331824625186549,37.476087607887514],[57.331857233829368,37.476104263694488],[57.33188573768529,37.476125162937173],[57.331909275559084,37.476149677081224]]},"properties":{"OBJECTID":67,"Hierarchy":2,"Width":24,"jahat_hark":1,"Name":"میدان شهید","Condition":0,"C_Width":14.3999996,"P_Width":0,"mahalle_id":111,"lighting":0,"kfsazi":0,"piade_ro":0,"keyfiat_ma":50,"trafic":5,"connectivi":0,"integratio":0,"Shape_Leng":123.782637677,"mabar_id":"99109","Shape_Le_1":123.782637677,"Shape_Length":123.78263767715804}}]
}